SWOT                    
1 54754U 22173A   23052.95061109  .00136628  00000+0  76186-1 0  9997
2 54754  77.6018 233.4690 0000663 280.9179  78.4056 14.09916559  9507
